{
    "links": {
        "self": "http://www.neowsapp.com/rest/v1/neo/3623951?api_key=iIulBulltgU6a56xZRHN4H3l9WmuAYTsLGpBGhQ2"
    },
    "id": "3623951",
    "neo_reference_id": "3623951",
    "name": "(2013 AR60)",
    "designation": "2013 AR60",
    "nasa_jpl_url": "http://ssd.jpl.nasa.gov/sbdb.cgi?sstr=3623951",
    "absolute_magnitude_h": 24.5,
    "estimated_diameter": {
        "kilometers": {
            "estimated_diameter_min": 0.0334622374,
            "estimated_diameter_max": 0.0748238376
        },
        "meters": {
            "estimated_diameter_min": 33.4622374455,
            "estimated_diameter_max": 74.8238376074
        },
        "miles": {
            "estimated_diameter_min": 0.0207924639,
            "estimated_diameter_max": 0.0464933628
        },
        "feet": {
            "estimated_diameter_min": 109.7842471007,
            "estimated_diameter_max": 245.4850393757
        }
    },
    "is_potentially_hazardous_asteroid": false,
    "close_approach_data": [
        {
            "close_approach_date": "2013-01-04",
            "close_approach_date_full": "2013-Jan-04 11:10",
            "epoch_date_close_approach": 1357297800000,
            "relative_velocity": {
                "kilometers_per_second": "7.7112973984",
                "kilometers_per_hour": "27760.670634397",
                "miles_per_hour": "17249.4011505785"
            },
            "miss_distance": {
                "astronomical": "0.0411719773",
                "lunar": "16.0158991697",
                "kilometers": "6159240.107768351",
                "miles": "3827174.3345352038"
            },
            "orbiting_body": "Earth"
        }
    ],
    "orbital_data": {
        "orbit_id": "6",
        "orbit_determination_date": "2017-04-06 08:47:18",
        "first_observation_date": "2013-01-10",
        "last_observation_date": "2013-01-21",
        "data_arc_in_days": 11,
        "observations_used": 37,
        "orbit_uncertainty": "8",
        "minimum_orbit_intersection": ".0260719",
        "jupiter_tisserand_invariant": "3.226",
        "epoch_osculation": "2456303.5",
        "eccentricity": ".5893643512632418",
        "semi_major_axis": "2.457593158798542",
        "inclination": "2.704289879404994",
        "ascending_node_longitude": "84.16737886812257",
        "orbital_period": "1407.22457559802",
        "perihelion_distance": "1.009175361094258",
        "perihelion_argument": "7.783282473673429",
        "aphelion_distance": "3.906010956502826",
        "perihelion_time": "2456287.931015247628",
        "mean_anomaly": "3.982899821424784",
        "mean_motion": ".2558227067964706",
        "equinox": "J2000",
        "orbit_class": {
            "orbit_class_type": "APO",
            "orbit_class_description": "Near-Earth asteroid orbits which cross the Earth’s orbit similar to that of 1862 Apollo",
            "orbit_class_range": "a (semi-major axis) > 1.0 AU; q (perihelion) < 1.017 AU"
        }
    },
    "is_sentry_object": false
}